
# Worst residual: 30.80 km
# MJD 59271.000000 (2021 Feb 26  0:00)
2011-037A = Spektr-R = NORAD 37755
1 37755U 11037A   21057.49919926  .00000000  00000-0  00000-0 0 11503
2 37755 066.3518 323.2786 7720058 313.7404 171.1947 00.10009781    06

# Worst residual: 14.90 km
# MJD 59272.000000 (2021 Feb 27  0:00)
2011-037A = Spektr-R = NORAD 37755
1 37755U 11037A   21058.49919926  .00000000  00000-0  00000-0 0 11504
2 37755 066.3227 323.2796 7701534 313.5891 207.9947 00.09997156    08

# Worst residual: 1.89 km
# MJD 59273.000000 (2021 Feb 28  0:00)
2011-037A = Spektr-R = NORAD 37755
1 37755U 11037A   21059.49919926  .00000000  00000-0  00000-0 0 11505
2 37755 066.3619 323.2066 7695287 313.5931 244.1505 00.09989627    02

# Worst residual: 17.74 km
# MJD 59274.000000 (2021 Mar  1  0:00)
2011-037A = Spektr-R = NORAD 37755
1 37755U 11037A   21060.49919926  .00000000  00000-0  00000-0 0 11507
2 37755 066.3824 323.1439 7686457 313.7420 279.6897 00.10008834    08

# Worst residual: 52.01 km
# MJD 59275.000000 (2021 Mar  2  0:00)
2011-037A = Spektr-R = NORAD 37755
1 37755U 11037A   21061.49919926  .00000000  00000-0  00000-0 0 11508
2 37755 066.3065 323.1058 7662225 314.0074 314.8881 00.10095513    03

# Worst residual: 173.27 km
# MJD 59276.000000 (2021 Mar  3  0:00)
2011-037A = Spektr-R = NORAD 37755
1 37755U 11037A   21062.49919926  .00000000  00000-0  00000-0 0 11509
2 37755 066.2764 323.0249 7584865 313.9470 350.4316 00.10330886    04

# Worst residual: 107.07 km
# MJD 59277.000000 (2021 Mar  4  0:00)
2011-037A = Spektr-R = NORAD 37755
1 37755U 11037A   21063.49919926  .00000000  00000-0  00000-0 0 11500
2 37755 066.2562 322.9387 7626884 313.0563 027.0664 00.10118775    07

# Worst residual: 25.86 km
# MJD 59278.000000 (2021 Mar  5  0:00)
2011-037A = Spektr-R = NORAD 37755
1 37755U 11037A   21064.49919926  .00000000  00000-0  00000-0 0 11501
2 37755 066.2708 322.7414 7660802 313.5302 061.7950 00.09868445    09

# Worst residual: 10.40 km
# MJD 59279.000000 (2021 Mar  6  0:00)
2011-037A = Spektr-R = NORAD 37755
1 37755U 11037A   21065.49919926  .00000000  00000-0  00000-0 0 11502
2 37755 066.2809 322.7224 7654972 313.7700 096.5759 00.09811673    09

# Worst residual: 10.59 km
# MJD 59280.000000 (2021 Mar  7  0:00)
2011-037A = Spektr-R = NORAD 37755
1 37755U 11037A   21066.49919926  .00000000  00000-0  00000-0 0 11503
2 37755 066.2066 322.8599 7648836 313.7873 131.6480 00.09805289    01

# Worst residual: 10.36 km
# MJD 59281.000000 (2021 Mar  8  0:00)
2011-037A = Spektr-R = NORAD 37755
1 37755U 11037A   21067.49919926  .00000000  00000-0  00000-0 0 11504
2 37755 066.1022 322.9900 7649723 313.7426 166.9430 00.09813685    04

# Worst residual: 5.92 km
# MJD 59282.000000 (2021 Mar  9  0:00)
2011-037A = Spektr-R = NORAD 37755
1 37755U 11037A   21068.49919926  .00000000  00000-0  00000-0 0 11505
2 37755 066.0635 323.0035 7656090 313.7613 202.2834 00.09824468    00

# Worst residual: 8.37 km
# MJD 59283.000000 (2021 Mar 10  0:00)
2011-037A = Spektr-R = NORAD 37755
1 37755U 11037A   21069.49919926  .00000000  00000-0  00000-0 0 11506
2 37755 066.1394 322.9021 7662137 313.8922 237.4882 00.09837203    03

# Worst residual: 18.07 km
# MJD 59284.000000 (2021 Mar 11  0:00)
2011-037A = Spektr-R = NORAD 37755
1 37755U 11037A   21070.49919926  .00000000  00000-0  00000-0 0 11508
2 37755 066.2793 322.7722 7660464 314.1107 272.4668 00.09861515    07

# Worst residual: 30.55 km
# MJD 59285.000000 (2021 Mar 12  0:00)
2011-037A = Spektr-R = NORAD 37755
1 37755U 11037A   21071.49919926  .00000000  00000-0  00000-0 0 11509
2 37755 066.3719 322.6880 7643451 314.3715 307.2692 00.09922779    08

# Worst residual: 91.00 km
# MJD 59286.000000 (2021 Mar 13  0:00)
2011-037A = Spektr-R = NORAD 37755
1 37755U 11037A   21072.49919926  .00000000  00000-0  00000-0 0 11500
2 37755 066.2942 322.6130 7590626 314.5575 342.1860 00.10093408    09

# Worst residual: 84.92 km
# MJD 59287.000000 (2021 Mar 14  0:00)
2011-037A = Spektr-R = NORAD 37755
1 37755U 11037A   21073.49919926  .00000000  00000-0  00000-0 0 11501
2 37755 066.3924 322.3814 7590240 314.0173 018.2504 00.09995276    05

# Worst residual: 6.71 km
# MJD 59288.000000 (2021 Mar 15  0:00)
2011-037A = Spektr-R = NORAD 37755
1 37755U 11037A   21074.49919926  .00000000  00000-0  00000-0 0 11502
2 37755 066.4635 322.4120 7606596 314.0694 053.6217 00.09900902    02

# Worst residual: 2.97 km
# MJD 59289.000000 (2021 Mar 16  0:00)
2011-037A = Spektr-R = NORAD 37755
1 37755U 11037A   21075.49919926  .00000000  00000-0  00000-0 0 11503
2 37755 066.5063 322.3102 7604194 314.1324 089.1204 00.09901706    03

# Worst residual: 6.59 km
# MJD 59290.000000 (2021 Mar 17  0:00)
2011-037A = Spektr-R = NORAD 37755
1 37755U 11037A   21076.49919926  .00000000  00000-0  00000-0 0 11504
2 37755 066.5294 322.2620 7598985 314.1648 124.7498 00.09908427    00

# Worst residual: 13.21 km
# MJD 59291.000000 (2021 Mar 18  0:00)
2011-037A = Spektr-R = NORAD 37755
1 37755U 11037A   21077.49919926  .00000000  00000-0  00000-0 0 11505
2 37755 066.4802 322.3161 7592217 314.1339 160.5513 00.09914532    04

# Worst residual: 18.72 km
# MJD 59292.000000 (2021 Mar 19  0:00)
2011-037A = Spektr-R = NORAD 37755
1 37755U 11037A   21078.49919926  .00000000  00000-0  00000-0 0 11506
2 37755 066.3805 322.4000 7587557 314.0485 196.5767 00.09916881    00

# Worst residual: 18.41 km
# MJD 59293.000000 (2021 Mar 20  0:00)
2011-037A = Spektr-R = NORAD 37755
1 37755U 11037A   21079.49919926  .00000000  00000-0  00000-0 0 11507
2 37755 066.3167 322.4185 7590881 313.9620 232.7865 00.09911437    02

# Worst residual: 30.42 km
# MJD 59294.000000 (2021 Mar 21  0:00)
2011-037A = Spektr-R = NORAD 37755
1 37755U 11037A   21080.49919926  .00000000  00000-0  00000-0 0 11509
2 37755 066.4198 322.3101 7605370 313.9570 269.0283 00.09894699    05

# Worst residual: 41.11 km
# MJD 59295.000000 (2021 Mar 22  0:00)
2011-037A = Spektr-R = NORAD 37755
1 37755U 11037A   21081.49919926  .00000000  00000-0  00000-0 0 11500
2 37755 066.6647 322.1656 7626436 314.0138 305.1517 00.09853555    05

# Worst residual: 155.52 km
# MJD 59296.000000 (2021 Mar 23  0:00)
2011-037A = Spektr-R = NORAD 37755
1 37755U 11037A   21082.49919926  .00000000  00000-0  00000-0 0 11501
2 37755 066.8830 322.0691 7678416 313.7351 341.4646 00.09583536    02

# Worst residual: 297.61 km
# MJD 59297.000000 (2021 Mar 24  0:00)
2011-037A = Spektr-R = NORAD 37755
1 37755U 11037A   21083.49919926  .00000000  00000-0  00000-0 0 11502
2 37755 066.9915 322.0125 7756393 315.0132 015.6092 00.09216598    08

# Worst residual: 101.62 km
# MJD 59298.000000 (2021 Mar 25  0:00)
2011-037A = Spektr-R = NORAD 37755
1 37755U 11037A   21084.49919926  .00000000  00000-0  00000-0 0 11503
2 37755 066.9990 322.1795 7614581 315.3237 051.0542 00.09652405    01
